[{"OBJECT_NAME":"ONEWEB-0163","OBJECT_ID":"2021-025V","EPOCH":"2026-03-09T17:04:31.607616","MEAN_MOTION":13.13470498,"ECCENTRICITY":0.00020191,"INCLINATION":87.9039,"RA_OF_ASC_NODE":340.0084,"ARG_OF_PERICENTER":76.18,"MEAN_ANOMALY":283.9554,"EPHEMERIS_TYPE":0,"CLASSIFICATION_TYPE":"U","NORAD_CAT_ID":48061,"ELEMENT_SET_NO":999,"REV_AT_EPOCH":24062,"BSTAR":-0.00052325397,"MEAN_MOTION_DOT":-1.78e-6,"MEAN_MOTION_DDOT":0},{"OBJECT_NAME":"BREEZE-M R\/B","OBJECT_ID":"2008-025E","EPOCH":"2026-03-09T17:23:06.550368","MEAN_MOTION":12.77759449,"ECCENTRICITY":0.01983855,"INCLINATION":82.5048,"RA_OF_ASC_NODE":146.2377,"ARG_OF_PERICENTER":263.0589,"MEAN_ANOMALY":215.0569,"EPHEMERIS_TYPE":0,"CLASSIFICATION_TYPE":"U","NORAD_CAT_ID":32957,"ELEMENT_SET_NO":999,"REV_AT_EPOCH":82989,"BSTAR":6.084448e-5,"MEAN_MOTION_DOT":2.4e-7,"MEAN_MOTION_DDOT":0}]
